[
  {
    "pincode": "442001",
    "officeName": "Wardha HO",
    "district": "Wardha",
    "state": "Maharashtra",
    "officeType": "H.O"
  },
  {
    "pincode": "442001",
    "officeName": "Sawangi Meghe",
    "district": "Wardha",
    "state": "Maharashtra",
    "officeType": "S.O"
  },
  {
    "pincode": "442001",
    "officeName": "Anji",
    "district": "Wardha",
    "state": "Maharashtra",
    "officeType": "B.O"
  },
  {
    "pincode": "442002",
    "officeName": "Talegaon Taraf Wardha",
    "district": "Wardha",
    "state": "Maharashtra",
    "officeType": "B.O"
  },
  {
    "pincode": "442003",
    "officeName": "Nalwadi",
    "district": "Wardha",
    "state": "Maharashtra",
    "officeType": "B.O"
  },
  {
    "pincode": "411001",
    "officeName": "Pune GPO",
    "district": "Pune",
    "state": "Maharashtra",
    "officeType": "H.O"
  },
  {
    "pincode": "411002",
    "officeName": "Shivaji Nagar Pune",
    "district": "Pune",
    "state": "Maharashtra",
    "officeType": "S.O"
  },
  {
    "pincode": "411003",
    "officeName": "Deccan Gymkhana",
    "district": "Pune",
    "state": "Maharashtra",
    "officeType": "S.O"
  },
  {
    "pincode": "400001",
    "officeName": "Mumbai GPO",
    "district": "Mumbai",
    "state": "Maharashtra",
    "officeType": "H.O"
  },
  {
    "pincode": "400002",
    "officeName": "Kalbadevi",
    "district": "Mumbai",
    "state": "Maharashtra",
    "officeType": "S.O"
  },
  {
    "pincode": "400003",
    "officeName": "Masjid Bunder",
    "district": "Mumbai",
    "state": "Maharashtra",
    "officeType": "S.O"
  },
  {
    "pincode": "440001",
    "officeName": "Nagpur GPO",
    "district": "Nagpur",
    "state": "Maharashtra",
    "officeType": "H.O"
  },
  {
    "pincode": "440002",
    "officeName": "Sitabuldi",
    "district": "Nagpur",
    "state": "Maharashtra",
    "officeType": "S.O"
  },
  {
    "pincode": "440003",
    "officeName": "Laxmi Nagar Nagpur",
    "district": "Nagpur",
    "state": "Maharashtra",
    "officeType": "S.O"
  },
  {
    "pincode": "444001",
    "officeName": "Akola HO",
    "district": "Akola",
    "state": "Maharashtra",
    "officeType": "H.O"
  },
  {
    "pincode": "444002",
    "officeName": "Goregaon",
    "district": "Akola",
    "state": "Maharashtra",
    "officeType": "S.O"
  },
  {
    "pincode": "431001",
    "officeName": "Aurangabad GPO",
    "district": "Aurangabad",
    "state": "Maharashtra",
    "officeType": "H.O"
  },
  {
    "pincode": "431002",
    "officeName": "Jawahar Colony Aurangabad",
    "district": "Aurangabad",
    "state": "Maharashtra",
    "officeType": "S.O"
  },
  {
    "pincode": "422001",
    "officeName": "Nashik Road",
    "district": "Nashik",
    "state": "Maharashtra",
    "officeType": "H.O"
  },
  {
    "pincode": "422002",
    "officeName": "College Road Nashik",
    "district": "Nashik",
    "state": "Maharashtra",
    "officeType": "S.O"
  }
]
